QIANFAN-65              
1 62795U 25016L   25359.09921593  .00000126  00000+0  17688-3 0  9996
2 62795  88.9765 101.7825 0012302 310.2128  49.7946 13.50981461 48912
QIANFAN-66              
1 62796U 25016M   25359.12804870  .00000176  00000+0  25350-3 0  9999
2 62796  88.9785 101.7521 0013334 304.8610  55.1287 13.50980829 48960
QIANFAN-67              
1 62797U 25016N   25359.13226220  .00000182  00000+0  26338-3 0  9992
2 62797  88.9775 101.7760 0013377 312.6403  47.3619 13.50984996 48937
QIANFAN-68              
1 62798U 25016P   25359.04987153  .00000173  00000+0  24900-3 0  9995
2 62798  88.9779 101.8302 0013424 310.9377  49.0612 13.50987352 48907
QIANFAN-69              
1 62799U 25016Q   25359.06633852  .00000185  00000+0  26754-3 0  9994
2 62799  88.9757 101.6952 0014185 312.0181  47.9761 13.50990164 48945
QIANFAN-70              
1 62800U 25016R   25359.08284801  .00000180  00000+0  26066-3 0  9996
2 62800  88.9778 101.8347 0013691 301.1802  58.8006 13.50981086 48903
QIANFAN-71              
1 62801U 25016S   25359.07865372  .00000170  00000+0  24446-3 0  9993
2 62801  88.9772 101.8138 0014145 315.9264  44.0758 13.50980625 48905
QIANFAN-72              
1 62802U 25016T   25359.09510657  .00000187  00000+0  27159-3 0  9991
2 62802  88.9762 101.8243 0017534 323.1409  36.8536 13.50980375 48892
